HIERARCHY
ROOT Hips
{
	OFFSET 0.000000 0.000000 0.000000
	CHANNELS 6 Xposition Yposition Zposition Zrotation Xrotation Yrotation
	JOINT Spine
	{
		OFFSET 0.000000 10.000000 -1.000000
		CHANNELS 3 Zrotation Xrotation Yrotation
		JOINT Spine1
		{
			OFFSET 0.000000 12.000000 0.500000
			CHANNELS 3 Zrotation Xrotation Yrotation
			JOINT Chest
			{
				OFFSET 0.000000 14.000000 0.500000
				CHANNELS 3 Zrotation Xrotation Yrotation
				JOINT Neck
				{
					OFFSET 0.000000 14.000000 0.000000
					CHANNELS 6 Xposition Yposition Zposition Zrotation Xrotation Yrotation
					JOINT Head
					{
						OFFSET 0.000000 10.000000 1.000000
						CHANNELS 3 Zrotation Xrotation Yrotation
						End Site
						{
							OFFSET 0.000000 12.000000 0.000000
						}
					}
				}
				JOINT LeftShoulder
				{
					OFFSET 8.000000 12.000000 0.000000
					CHANNELS 6 Xposition Yposition Zposition Zrotation Xrotation Yrotation
					JOINT LeftArm
					{
						OFFSET 14.000000 0.000000 0.000000
						CHANNELS 3 Zrotation Xrotation Yrotation
						JOINT LeftForeArm
						{
							OFFSET 27.000000 0.000000 0.000000
							CHANNELS 3 Zrotation Xrotation Yrotation
							JOINT LeftHand
							{
								OFFSET 25.000000 0.000000 0.000000
								CHANNELS 3 Zrotation Xrotation Yrotation
								End Site
								{
									OFFSET 10.000000 0.000000 0.000000
								}
							}
						}
					}
				}
				JOINT RightShoulder
				{
					OFFSET -8.000000 12.000000 0.000000
					CHANNELS 6 Xposition Yposition Zposition Zrotation Xrotation Yrotation
					JOINT RightArm
					{
						OFFSET -14.000000 0.000000 0.000000
						CHANNELS 3 Zrotation Xrotation Yrotation
						JOINT RightForeArm
						{
							OFFSET -27.000000 0.000000 0.000000
							CHANNELS 3 Zrotation Xrotation Yrotation
							JOINT RightHand
							{
								OFFSET -25.000000 0.000000 0.000000
								CHANNELS 3 Zrotation Xrotation Yrotation
								End Site
								{
									OFFSET -10.000000 0.000000 0.000000
								}
							}
						}
					}
				}
			}
		}
	}
	JOINT LeftUpLeg
	{
		OFFSET 9.000000 -3.000000 0.000000
		CHANNELS 6 Xposition Yposition Zposition Zrotation Xrotation Yrotation
		JOINT LeftLeg
		{
			OFFSET 0.000000 -42.000000 0.000000
			CHANNELS 3 Zrotation Xrotation Yrotation
			JOINT LeftFoot
			{
				OFFSET 0.000000 -41.000000 0.000000
				CHANNELS 3 Zrotation Xrotation Yrotation
				JOINT LeftToeBase
				{
					OFFSET 0.000000 -6.000000 13.000000
					CHANNELS 3 Zrotation Xrotation Yrotation
					End Site
					{
						OFFSET 0.000000 0.000000 7.000000
					}
				}
			}
		}
	}
	JOINT RightUpLeg
	{
		OFFSET -9.000000 -3.000000 0.000000
		CHANNELS 6 Xposition Yposition Zposition Zrotation Xrotation Yrotation
		JOINT RightLeg
		{
			OFFSET 0.000000 -42.000000 0.000000
			CHANNELS 3 Zrotation Xrotation Yrotation
			JOINT RightFoot
			{
				OFFSET 0.000000 -41.000000 0.000000
				CHANNELS 3 Zrotation Xrotation Yrotation
				JOINT RightToeBase
				{
					OFFSET 0.000000 -6.000000 13.000000
					CHANNELS 3 Zrotation Xrotation Yrotation
					End Site
					{
						OFFSET 0.000000 0.000000 7.000000
					}
				}
			}
		}
	}
}
MOTION
Frames: 5
Frame Time: 0.033333
0.000000 95.000000 0.000000 0.000000 0.000000 12.000000 0.000000 0.000000 0.000000 0.000000 0.000000 0.000000 0.000000 0.000000 0.000000 0.000000 14.000000 0.000000 0.000000 0.000000 0.000000 0.000000 0.000000 0.000000 8.000000 12.000000 0.000000 0.000000 0.000000 0.000000 0.000000 0.000000 0.000000 0.000000 0.000000 0.000000 0.000000 0.000000 0.000000 -8.000000 12.000000 0.000000 0.000000 0.000000 0.000000 0.000000 0.000000 0.000000 0.000000 0.000000 0.000000 0.000000 0.000000 0.000000 9.000000 -3.000000 0.000000 0.000000 0.000000 0.000000 0.000000 0.000000 0.000000 0.000000 0.000000 0.000000 0.000000 0.000000 0.000000 -9.000000 -3.000000 0.000000 0.000000 0.000000 0.000000 0.000000 0.000000 0.000000 0.000000 0.000000 0.000000 0.000000 0.000000 0.000000
0.000000 96.200000 6.000000 -0.113236 1.398649 12.018691 -0.071637 0.019234 3.153728 -0.023831 -0.126323 2.933435 -0.088091 -0.032032 3.052574 0.000000 14.000000 0.000000 0.133463 -0.019224 -0.133617 -0.032585 0.077199 0.137538 8.000000 12.000000 0.000000 -0.036854 0.055317 -0.189687 5.860503 -13.908489 -0.127461 0.162681 -15.016773 -0.131106 0.048528 0.107084 -0.105175 -8.000000 12.000000 0.000000 -0.040029 0.139443 -0.152237 -5.870029 13.823797 0.008371 0.154829 -14.921290 0.117901 -0.015512 -0.153777 -0.008595 9.000000 -3.000000 0.000000 -0.001376 17.835006 -0.135981 -0.066234 13.827373 -0.152256 -0.171627 0.009550 0.083183 -0.192989 0.106343 -0.199109 -9.000000 -3.000000 0.000000 -0.107971 -17.861939 -0.030806 -0.065734 2.034741 -0.199775 0.195245 0.112336 0.094549 -0.032252 -0.051519 -0.071896
0.000000 95.000000 12.000000 0.029449 -0.063623 11.989069 -0.139975 0.100454 -0.044309 0.055976 -0.098726 0.113708 -0.093549 -0.161966 -0.130172 0.000000 14.000000 0.000000 0.172320 -1.943924 -0.017171 0.078942 -2.126081 -0.149451 8.000000 12.000000 0.000000 0.029591 0.121023 0.181865 6.009348 0.190369 -0.028199 -0.080065 -10.053689 -0.098255 -0.028170 0.016600 -0.084408 -8.000000 12.000000 0.000000 0.181055 -0.049714 0.134330 -5.806204 0.026084 0.064096 0.005650 -10.041676 0.158429 -0.101604 0.160785 0.034131 9.000000 -3.000000 0.000000 -0.179428 -0.184125 -0.111221 0.173206 7.839901 -0.019849 -0.030372 -4.090330 0.120138 0.156855 0.067922 0.006447 -9.000000 -3.000000 0.000000 0.037247 0.091585 -0.079873 -0.083951 8.140379 -0.140811 0.129915 -3.947146 0.094088 0.041469 0.032750 -0.151471
0.000000 93.800000 18.000000 -0.160956 -1.545500 11.972100 -0.115302 0.021780 -2.910055 0.149841 0.070053 -3.079082 0.010016 -0.025989 -2.919233 0.000000 14.000000 0.000000 0.197009 0.074802 -0.072084 -0.004678 -0.013243 0.026613 8.000000 12.000000 0.000000 0.096927 -0.103946 -0.139813 6.130898 14.074197 0.060442 -0.125973 -5.155740 0.176872 0.121565 -0.062736 0.108913 -8.000000 12.000000 0.000000 -0.078460 -0.081389 -0.169606 -5.812685 -14.064778 0.193419 0.184340 -4.938633 -0.029226 0.054988 0.092029 0.045832 9.000000 -3.000000 0.000000 -0.184783 -17.854979 -0.144795 -0.019350 2.154923 -0.178896 -0.034051 -0.091351 0.049520 -0.198940 -0.116468 -0.192461 -9.000000 -3.000000 0.000000 0.094631 18.049882 -0.010075 -0.035450 13.919751 0.148454 0.144626 -0.154568 -0.163526 0.197171 -0.131132 -0.182656
0.000000 95.000000 24.000000 0.018011 -0.190329 12.052086 0.150197 0.138177 -0.175145 -0.073431 -0.188170 -0.179390 0.065671 0.062789 0.184605 0.000000 14.000000 0.000000 0.169037 2.129170 0.092700 0.048529 2.089478 0.029143 8.000000 12.000000 0.000000 -0.180351 0.058724 -0.116511 6.140750 0.068570 -0.002307 0.171452 -10.145086 0.117904 0.103937 -0.194540 0.030516 -8.000000 12.000000 0.000000 0.052031 0.098549 0.042954 -6.083847 -0.153889 0.150267 -0.030658 -9.926148 -0.100318 -0.129344 -0.031248 -0.006152 9.000000 -3.000000 0.000000 -0.177550 0.164448 -0.144930 0.095989 8.030298 0.051725 -0.073406 3.808891 -0.087064 -0.065981 -0.166444 0.178621 -9.000000 -3.000000 0.000000 0.160840 -0.021363 -0.066687 0.117682 7.932510 -0.120004 0.038338 3.850650 -0.095413 0.061233 -0.150951 -0.055131
