HIERARCHY
ROOT Bip01
{
	OFFSET 0.000000 0.000000 0.000000
	CHANNELS 6 Xposition Yposition Zposition Zrotation Xrotation Yrotation
	JOINT Footsteps
	{
		OFFSET 0.000000 -95.000000 0.000000
		CHANNELS 6 Xposition Yposition Zposition Zrotation Xrotation Yrotation
		End Site
		{
			OFFSET 0.000000 0.000000 10.000000
		}
	}
	JOINT Hips
	{
		OFFSET 0.000000 0.000000 0.000000
		CHANNELS 6 Xposition Yposition Zposition Zrotation Xrotation Yrotation
		JOINT Spine
		{
			OFFSET 0.000000 10.000000 -1.000000
			CHANNELS 6 Xposition Yposition Zposition Zrotation Xrotation Yrotation
			JOINT Spine1
			{
				OFFSET 0.000000 12.000000 0.500000
				CHANNELS 6 Xposition Yposition Zposition Zrotation Xrotation Yrotation
				JOINT Chest
				{
					OFFSET 0.000000 14.000000 0.500000
					CHANNELS 6 Xposition Yposition Zposition Zrotation Xrotation Yrotation
					JOINT Neck
					{
						OFFSET 0.000000 14.000000 0.000000
						CHANNELS 6 Xposition Yposition Zposition Zrotation Xrotation Yrotation
						JOINT Head
						{
							OFFSET 0.000000 10.000000 1.000000
							CHANNELS 6 Xposition Yposition Zposition Zrotation Xrotation Yrotation
							End Site
							{
								OFFSET 0.000000 12.000000 0.000000
							}
						}
					}
					JOINT LeftShoulder
					{
						OFFSET 8.000000 12.000000 0.000000
						CHANNELS 6 Xposition Yposition Zposition Zrotation Xrotation Yrotation
						JOINT LeftArm
						{
							OFFSET 14.000000 0.000000 0.000000
							CHANNELS 6 Xposition Yposition Zposition Zrotation Xrotation Yrotation
							JOINT LeftForeArm
							{
								OFFSET 27.000000 0.000000 0.000000
								CHANNELS 6 Xposition Yposition Zposition Zrotation Xrotation Yrotation
								JOINT LeftHand
								{
									OFFSET 25.000000 0.000000 0.000000
									CHANNELS 6 Xposition Yposition Zposition Zrotation Xrotation Yrotation
									End Site
									{
										OFFSET 10.000000 0.000000 0.000000
									}
								}
							}
						}
					}
					JOINT RightShoulder
					{
						OFFSET -8.000000 12.000000 0.000000
						CHANNELS 6 Xposition Yposition Zposition Zrotation Xrotation Yrotation
						JOINT RightArm
						{
							OFFSET -14.000000 0.000000 0.000000
							CHANNELS 6 Xposition Yposition Zposition Zrotation Xrotation Yrotation
							JOINT RightForeArm
							{
								OFFSET -27.000000 0.000000 0.000000
								CHANNELS 6 Xposition Yposition Zposition Zrotation Xrotation Yrotation
								JOINT RightHand
								{
									OFFSET -25.000000 0.000000 0.000000
									CHANNELS 6 Xposition Yposition Zposition Zrotation Xrotation Yrotation
									End Site
									{
										OFFSET -10.000000 0.000000 0.000000
									}
								}
							}
						}
					}
				}
			}
		}
		JOINT LeftUpLeg
		{
			OFFSET 9.000000 -3.000000 0.000000
			CHANNELS 6 Xposition Yposition Zposition Zrotation Xrotation Yrotation
			JOINT LeftLeg
			{
				OFFSET 0.000000 -42.000000 0.000000
				CHANNELS 6 Xposition Yposition Zposition Zrotation Xrotation Yrotation
				JOINT LeftFoot
				{
					OFFSET 0.000000 -41.000000 0.000000
					CHANNELS 6 Xposition Yposition Zposition Zrotation Xrotation Yrotation
					JOINT LeftToeBase
					{
						OFFSET 0.000000 -6.000000 13.000000
						CHANNELS 6 Xposition Yposition Zposition Zrotation Xrotation Yrotation
						End Site
						{
							OFFSET 0.000000 0.000000 7.000000
						}
					}
				}
			}
		}
		JOINT RightUpLeg
		{
			OFFSET -9.000000 -3.000000 0.000000
			CHANNELS 6 Xposition Yposition Zposition Zrotation Xrotation Yrotation
			JOINT RightLeg
			{
				OFFSET 0.000000 -42.000000 0.000000
				CHANNELS 6 Xposition Yposition Zposition Zrotation Xrotation Yrotation
				JOINT RightFoot
				{
					OFFSET 0.000000 -41.000000 0.000000
					CHANNELS 6 Xposition Yposition Zposition Zrotation Xrotation Yrotation
					JOINT RightToeBase
					{
						OFFSET 0.000000 -6.000000 13.000000
						CHANNELS 6 Xposition Yposition Zposition Zrotation Xrotation Yrotation
						End Site
						{
							OFFSET 0.000000 0.000000 7.000000
						}
					}
				}
			}
		}
	}
}
MOTION
Frames: 5
Frame Time: 0.03333333333333333
0.000000 95.000000 0.000000 0.000000 0.000000 12.000000 0.000000 -95.000000 0.000000 0.000000 0.000000 0.000000 0.000000 0.000000 0.000000 0.000000 0.000000 0.000000 0.000000 10.000000 -1.000000 0.000000 0.000000 0.000000 0.000000 12.000000 0.500000 0.000000 0.000000 0.000000 0.000000 14.000000 0.500000 0.000000 0.000000 0.000000 0.000000 14.000000 0.000000 0.000000 0.000000 0.000000 0.000000 10.000000 1.000000 0.000000 0.000000 0.000000 8.000000 12.000000 0.000000 0.000000 0.000000 0.000000 14.000000 0.000000 0.000000 0.000000 0.000000 0.000000 27.000000 0.000000 0.000000 0.000000 0.000000 0.000000 25.000000 0.000000 0.000000 0.000000 0.000000 0.000000 -8.000000 12.000000 0.000000 0.000000 0.000000 0.000000 -14.000000 0.000000 0.000000 0.000000 0.000000 0.000000 -27.000000 0.000000 0.000000 0.000000 0.000000 0.000000 -25.000000 0.000000 0.000000 0.000000 0.000000 0.000000 9.000000 -3.000000 0.000000 0.000000 0.000000 0.000000 0.000000 -42.000000 0.000000 0.000000 0.000000 0.000000 0.000000 -41.000000 0.000000 0.000000 0.000000 0.000000 0.000000 -6.000000 13.000000 0.000000 0.000000 0.000000 -9.000000 -3.000000 0.000000 0.000000 0.000000 0.000000 0.000000 -42.000000 0.000000 0.000000 0.000000 0.000000 0.000000 -41.000000 0.000000 0.000000 0.000000 0.000000 0.000000 -6.000000 13.000000 0.000000 0.000000 0.000000
0.000000 96.200000 6.000000 0.000000 0.000000 13.414214 0.000000 -95.000000 0.000000 -0.084706 0.060797 0.054944 0.000000 0.000000 0.000000 0.000000 1.500000 0.000000 0.000000 10.000000 -1.000000 -0.081053 -0.086751 2.906216 0.000000 12.000000 0.500000 0.047714 -0.139970 2.848893 0.000000 14.000000 0.500000 0.004327 -0.163353 3.041755 0.000000 14.000000 0.000000 -0.048527 0.112088 0.118796 0.000000 10.000000 1.000000 -0.106649 -0.080532 0.098536 8.000000 12.000000 0.000000 -0.125042 -0.051043 0.032879 14.000000 0.000000 0.000000 5.961058 -14.105088 -0.089574 27.000000 0.000000 0.000000 0.139572 -14.888961 0.029429 25.000000 0.000000 0.000000 0.042820 0.170415 -0.091542 -8.000000 12.000000 0.000000 -0.195694 -0.040704 0.109709 -14.000000 0.000000 0.000000 -5.996283 13.852828 0.014903 -27.000000 0.000000 0.000000 -0.045403 -14.846612 0.145992 -25.000000 0.000000 0.000000 0.030683 0.079293 0.139863 9.000000 -3.000000 0.000000 -0.136396 17.904564 -0.075605 0.000000 -42.000000 0.000000 0.018420 14.102549 -0.067520 0.000000 -41.000000 0.000000 0.065061 -0.002404 0.109121 0.000000 -6.000000 13.000000 0.086755 0.085274 0.021094 -9.000000 -3.000000 0.000000 0.027914 -17.937670 0.026969 0.000000 -42.000000 0.000000 -0.071708 2.181567 0.125413 0.000000 -41.000000 0.000000 -0.020039 -0.083284 0.108604 0.000000 -6.000000 13.000000 -0.003682 -0.069647 -0.129266
0.000000 95.000000 12.000000 0.000000 0.000000 14.000000 0.000000 -95.000000 0.000000 -0.058482 -3.906213 -0.114821 0.000000 0.000000 0.000000 0.000000 0.000000 0.000000 0.000000 10.000000 -1.000000 0.006778 0.086601 0.055251 0.000000 12.000000 0.500000 -0.123155 -0.162803 0.182749 0.000000 14.000000 0.500000 0.042511 -0.199509 0.107330 0.000000 14.000000 0.000000 -0.028267 -2.115002 0.187757 0.000000 10.000000 1.000000 -0.079720 -2.114518 -0.010780 8.000000 12.000000 0.000000 -0.124999 -0.054744 0.000207 14.000000 0.000000 0.000000 5.832258 -0.186576 0.017312 27.000000 0.000000 0.000000 0.037861 -9.877502 -0.089362 25.000000 0.000000 0.000000 -0.084310 0.002040 0.071130 -8.000000 12.000000 0.000000 0.026813 0.120248 0.046337 -14.000000 0.000000 0.000000 -6.049469 -0.066176 0.164863 -27.000000 0.000000 0.000000 -0.145428 -10.143650 0.023253 -25.000000 0.000000 0.000000 -0.129325 0.150172 0.101915 9.000000 -3.000000 0.000000 0.110121 -0.166290 -0.131733 0.000000 -42.000000 0.000000 0.090977 7.802553 0.072246 0.000000 -41.000000 0.000000 0.010461 -4.012767 0.137738 0.000000 -6.000000 13.000000 0.113849 0.047114 -0.099894 -9.000000 -3.000000 0.000000 -0.039505 -0.050508 0.104136 0.000000 -42.000000 0.000000 0.081808 7.924110 0.117312 0.000000 -41.000000 0.000000 -0.143290 -4.049868 -0.016486 0.000000 -6.000000 13.000000 0.127283 -0.140420 0.120784
0.000000 93.800000 18.000000 0.000000 0.000000 13.414214 0.000000 -95.000000 0.000000 -0.010845 0.164150 -0.126089 0.000000 0.000000 0.000000 0.000000 -1.500000 0.000000 0.000000 10.000000 -1.000000 0.197215 -0.143792 -2.819119 0.000000 12.000000 0.500000 0.134421 -0.080938 -3.108503 0.000000 14.000000 0.500000 0.131396 -0.078754 -3.196122 0.000000 14.000000 0.000000 -0.145871 -0.009484 -0.135289 0.000000 10.000000 1.000000 -0.094501 -0.031039 -0.131562 8.000000 12.000000 0.000000 0.091814 -0.034109 0.110560 14.000000 0.000000 0.000000 6.092192 14.007116 0.145915 27.000000 0.000000 0.000000 -0.165437 -5.100546 -0.091741 25.000000 0.000000 0.000000 -0.127903 -0.015902 -0.032679 -8.000000 12.000000 0.000000 -0.092141 -0.000382 -0.013497 -14.000000 0.000000 0.000000 -6.184102 -13.983768 0.055266 -27.000000 0.000000 0.000000 0.162447 -4.897716 -0.006398 -25.000000 0.000000 0.000000 -0.070296 -0.162488 -0.163259 9.000000 -3.000000 0.000000 -0.169117 -18.167300 -0.170172 0.000000 -42.000000 0.000000 -0.027968 1.889219 -0.104271 0.000000 -41.000000 0.000000 -0.199745 0.167782 0.198565 0.000000 -6.000000 13.000000 -0.111053 0.137536 -0.193418 -9.000000 -3.000000 0.000000 0.165263 18.098049 0.027701 0.000000 -42.000000 0.000000 -0.026670 14.031827 -0.007467 0.000000 -41.000000 0.000000 -0.077563 0.065833 0.083204 0.000000 -6.000000 13.000000 -0.074915 0.182221 0.070750
0.000000 95.000000 24.000000 0.000000 0.000000 12.000000 0.000000 -95.000000 0.000000 -0.036903 3.932023 -0.043125 0.000000 0.000000 0.000000 0.000000 0.000000 0.000000 0.000000 10.000000 -1.000000 -0.011709 -0.071418 0.078939 0.000000 12.000000 0.500000 0.059980 0.070374 0.152687 0.000000 14.000000 0.500000 -0.137314 0.192472 0.027279 0.000000 14.000000 0.000000 0.045183 1.856761 0.086878 0.000000 10.000000 1.000000 -0.174436 1.896179 0.192478 8.000000 12.000000 0.000000 0.094422 -0.183665 -0.082191 14.000000 0.000000 0.000000 5.908357 0.033021 0.093907 27.000000 0.000000 0.000000 -0.151972 -10.122509 0.068182 25.000000 0.000000 0.000000 0.091551 0.173548 -0.047936 -8.000000 12.000000 0.000000 -0.185425 -0.048786 0.194868 -14.000000 0.000000 0.000000 -5.802966 -0.190691 -0.044528 -27.000000 0.000000 0.000000 -0.045742 -9.992490 -0.161487 -25.000000 0.000000 0.000000 0.168923 0.128915 -0.034694 9.000000 -3.000000 0.000000 0.042034 -0.162554 0.025209 0.000000 -42.000000 0.000000 -0.108868 8.089296 0.014563 0.000000 -41.000000 0.000000 -0.018466 4.142143 -0.136071 0.000000 -6.000000 13.000000 -0.069663 0.120921 -0.082541 -9.000000 -3.000000 0.000000 -0.070649 -0.192434 0.172754 0.000000 -42.000000 0.000000 -0.076873 8.006813 0.041459 0.000000 -41.000000 0.000000 0.122754 4.101757 0.093010 0.000000 -6.000000 13.000000 0.114427 0.102592 0.024748
