HIERARCHY
ROOT Hips
{
	OFFSET 0.000000 0.000000 0.000000
	CHANNELS 6 Xposition Yposition Zposition Zrotation Xrotation Yrotation
	JOINT Spine
	{
		OFFSET 0.000000 10.000000 -1.000000
		CHANNELS 3 Zrotation Xrotation Yrotation
		JOINT Spine1
		{
			OFFSET 0.000000 12.000000 0.500000
			CHANNELS 3 Zrotation Xrotation Yrotation
			JOINT Chest
			{
				OFFSET 0.000000 14.000000 0.500000
				CHANNELS 3 Zrotation Xrotation Yrotation
				JOINT Neck
				{
					OFFSET 0.000000 14.000000 0.000000
					CHANNELS 6 Zrotation Xposition Xrotation Yposition Yrotation Zposition
					JOINT Head
					{
						OFFSET 0.000000 10.000000 1.000000
						CHANNELS 3 Zrotation Xrotation Yrotation
						End Site
						{
							OFFSET 0.000000 12.000000 0.000000
						}
					}
				}
				JOINT LeftShoulder
				{
					OFFSET 8.000000 12.000000 0.000000
					CHANNELS 6 Xposition Yposition Zposition Yrotation Xrotation Zrotation
					JOINT LeftArm
					{
						OFFSET 14.000000 0.000000 0.000000
						CHANNELS 3 Zrotation Xrotation Yrotation
						JOINT LeftForeArm
						{
							OFFSET 27.000000 0.000000 0.000000
							CHANNELS 3 Zrotation Xrotation Yrotation
							JOINT LeftHand
							{
								OFFSET 25.000000 0.000000 0.000000
								CHANNELS 3 Zrotation Xrotation Yrotation
								End Site
								{
									OFFSET 10.000000 0.000000 0.000000
								}
							}
						}
					}
				}
				JOINT RightShoulder
				{
					OFFSET -8.000000 12.000000 0.000000
					CHANNELS 6 Xposition Yposition Zposition Yrotation Xrotation Zrotation
					JOINT RightArm
					{
						OFFSET -14.000000 0.000000 0.000000
						CHANNELS 3 Zrotation Xrotation Yrotation
						JOINT RightForeArm
						{
							OFFSET -27.000000 0.000000 0.000000
							CHANNELS 3 Zrotation Xrotation Yrotation
							JOINT RightHand
							{
								OFFSET -25.000000 0.000000 0.000000
								CHANNELS 3 Zrotation Xrotation Yrotation
								End Site
								{
									OFFSET -10.000000 0.000000 0.000000
								}
							}
						}
					}
				}
			}
		}
	}
	JOINT LeftUpLeg
	{
		OFFSET 9.000000 -3.000000 0.000000
		CHANNELS 6 Zposition Xposition Yposition Xrotation Yrotation Zrotation
		JOINT LeftLeg
		{
			OFFSET 0.000000 -42.000000 0.000000
			CHANNELS 3 Zrotation Xrotation Yrotation
			JOINT LeftFoot
			{
				OFFSET 0.000000 -41.000000 0.000000
				CHANNELS 3 Zrotation Xrotation Yrotation
				JOINT LeftToeBase
				{
					OFFSET 0.000000 -6.000000 13.000000
					CHANNELS 3 Zrotation Xrotation Yrotation
					End Site
					{
						OFFSET 0.000000 0.000000 7.000000
					}
				}
			}
		}
	}
	JOINT RightUpLeg
	{
		OFFSET -9.000000 -3.000000 0.000000
		CHANNELS 6 Yposition Zposition Xposition Zrotation Yrotation Xrotation
		JOINT RightLeg
		{
			OFFSET 0.000000 -42.000000 0.000000
			CHANNELS 3 Zrotation Xrotation Yrotation
			JOINT RightFoot
			{
				OFFSET 0.000000 -41.000000 0.000000
				CHANNELS 3 Zrotation Xrotation Yrotation
				JOINT RightToeBase
				{
					OFFSET 0.000000 -6.000000 13.000000
					CHANNELS 3 Zrotation Xrotation Yrotation
					End Site
					{
						OFFSET 0.000000 0.000000 7.000000
					}
				}
			}
		}
	}
}
MOTION
Frames: 5
Frame Time: 0.03333333333333333
0.000000 95.000000 0.000000 0.000000 0.000000 12.000000 0.000000 0.000000 0.000000 0.000000 0.000000 0.000000 0.000000 0.000000 0.000000 0.000000 0.000000 0.000000 14.000000 0.000000 0.000000 0.000000 0.000000 0.000000 8.000000 12.000000 0.000000 0.000000 0.000000 0.000000 0.000000 0.000000 0.000000 0.000000 0.000000 0.000000 0.000000 0.000000 0.000000 -8.000000 12.000000 0.000000 0.000000 0.000000 0.000000 0.000000 0.000000 0.000000 0.000000 0.000000 0.000000 0.000000 0.000000 0.000000 0.000000 9.000000 -3.000000 0.000000 0.000000 0.000000 0.000000 0.000000 0.000000 0.000000 0.000000 0.000000 0.000000 0.000000 0.000000 -3.000000 0.000000 -9.000000 0.000000 0.000000 0.000000 0.000000 0.000000 0.000000 0.000000 0.000000 0.000000 0.000000 0.000000 0.000000
0.000000 96.200000 6.000000 -0.142110 1.406636 12.027468 0.104621 0.136350 2.808405 0.110210 0.049000 3.139386 -0.097151 -0.153313 3.148980 0.177369 0.000000 0.007970 14.000000 0.009861 0.000000 0.072707 -0.122487 -0.065273 8.000000 12.000000 0.000000 -0.162131 0.064198 0.002901 6.150706 -13.812813 -0.155655 -0.033984 -14.818701 0.157186 0.081504 0.092116 0.119287 -8.000000 12.000000 0.000000 -0.086294 -0.031194 -0.132210 -6.020400 13.848755 0.127361 0.070392 -14.821805 0.107658 0.186477 -0.065985 0.128780 0.000000 9.000000 -3.000000 17.953953 0.055156 -0.112888 -0.013941 14.083005 0.138022 0.126630 0.093733 -0.111752 -0.072607 0.018470 0.119506 -3.000000 0.000000 -9.000000 0.113824 0.058766 -17.844816 -0.161784 2.042783 -0.085175 0.026610 -0.197122 0.155185 -0.042930 -0.184593 0.182781
0.000000 95.000000 12.000000 -0.178180 0.058417 11.888112 -0.071478 -0.159361 -0.117077 0.076669 0.063529 0.164685 -0.177656 0.042476 -0.064506 0.055572 0.000000 -2.002626 14.000000 0.088304 0.000000 0.128689 -2.148295 0.067616 8.000000 12.000000 0.000000 0.134949 0.025128 -0.065208 6.193989 0.172023 0.142976 0.069254 -10.047761 0.180354 -0.130763 0.082773 0.143256 -8.000000 12.000000 0.000000 -0.058025 0.091086 0.115719 -6.140836 0.086320 0.113650 0.141872 -9.933682 -0.159406 0.018850 0.123540 -0.176102 0.000000 9.000000 -3.000000 0.070610 -0.119479 -0.124629 -0.136883 7.829811 0.146744 -0.040519 -4.164204 -0.133577 -0.109221 0.002864 0.152872 -3.000000 0.000000 -9.000000 0.073062 -0.189843 -0.027046 -0.048262 8.062446 -0.100195 0.079374 -4.160745 0.104389 0.171761 -0.015069 0.128995
0.000000 93.800000 18.000000 0.003188 -1.570721 12.189026 -0.195400 0.199892 -3.108309 -0.156865 0.099503 -3.162772 0.089161 0.017778 -3.093969 0.116186 0.000000 0.192577 14.000000 -0.040638 0.000000 -0.192074 -0.145199 -0.056495 8.000000 12.000000 0.000000 0.172752 -0.045486 0.101087 6.085465 14.176400 0.160334 0.025342 -4.846784 0.190656 0.010056 0.073045 -0.165050 -8.000000 12.000000 0.000000 -0.059222 -0.133290 0.068559 -5.877509 -14.184340 -0.174540 0.076776 -5.056322 0.021464 -0.080300 0.122466 0.148556 0.000000 9.000000 -3.000000 -17.825810 0.111269 0.199646 -0.129393 1.950968 -0.002626 -0.106636 -0.014731 0.121084 0.059366 0.130655 0.031993 -3.000000 0.000000 -9.000000 -0.105932 0.136385 18.072554 -0.134486 14.121122 0.019422 -0.004383 -0.021107 -0.081288 -0.035116 0.137095 -0.061749
0.000000 95.000000 24.000000 0.155969 0.086152 11.926555 0.060304 0.048412 -0.002808 0.030119 -0.134640 -0.073433 -0.107382 0.072978 -0.041484 -0.030221 0.000000 2.124136 14.000000 -0.169850 0.000000 -0.016040 2.137838 0.123795 8.000000 12.000000 0.000000 0.056615 0.027423 -0.017024 5.935959 -0.098470 0.101873 -0.108884 -9.896428 0.160606 -0.088581 -0.072783 0.009741 -8.000000 12.000000 0.000000 0.156589 0.172512 -0.190957 -6.142527 -0.111389 0.095131 0.175178 -10.166622 -0.070523 0.141668 0.146878 0.167231 0.000000 9.000000 -3.000000 0.152574 0.098531 -0.177438 0.158436 7.968881 0.125496 0.125301 4.140761 0.030643 0.196939 0.084403 -0.031459 -3.000000 0.000000 -9.000000 0.088879 -0.159028 -0.107473 -0.116572 7.956402 -0.046917 -0.114494 3.857890 0.058562 0.002727 0.110669 0.008766
