HIERARCHY
ROOT Root
{
	OFFSET 0.000000 0.000000 0.000000
	CHANNELS 6 Xposition Yposition Zposition Zrotation Xrotation Yrotation
	JOINT Footsteps
	{
		OFFSET 0.000000 -55.000000 0.000000
		CHANNELS 6 Xposition Yposition Zposition Zrotation Xrotation Yrotation
		End Site
		{
			OFFSET 0.000000 0.000000 8.000000
		}
	}
	JOINT Hips
	{
		OFFSET 0.000000 0.000000 0.000000
		CHANNELS 6 Xposition Yposition Zposition Zrotation Xrotation Yrotation
		JOINT Spine
		{
			OFFSET 0.000000 3.000000 12.000000
			CHANNELS 6 Xposition Yposition Zposition Zrotation Xrotation Yrotation
			JOINT Spine1
			{
				OFFSET 0.000000 2.000000 12.000000
				CHANNELS 6 Xposition Yposition Zposition Zrotation Xrotation Yrotation
				JOINT Spine2
				{
					OFFSET 0.000000 1.000000 12.000000
					CHANNELS 6 Xposition Yposition Zposition Zrotation Xrotation Yrotation
					JOINT Neck
					{
						OFFSET 0.000000 6.000000 8.000000
						CHANNELS 6 Xposition Yposition Zposition Zrotation Xrotation Yrotation
						JOINT Neck1
						{
							OFFSET 0.000000 5.000000 6.000000
							CHANNELS 6 Xposition Yposition Zposition Zrotation Xrotation Yrotation
							JOINT Head
							{
								OFFSET 0.000000 4.000000 6.000000
								CHANNELS 6 Xposition Yposition Zposition Zrotation Xrotation Yrotation
								End Site
								{
									OFFSET 0.000000 0.000000 12.000000
								}
							}
						}
					}
					JOINT LeftShoulder
					{
						OFFSET 6.000000 -4.000000 4.000000
						CHANNELS 6 Xposition Yposition Zposition Zrotation Xrotation Yrotation
						JOINT LeftArm
						{
							OFFSET 2.000000 -16.000000 0.000000
							CHANNELS 6 Xposition Yposition Zposition Zrotation Xrotation Yrotation
							JOINT LeftForeArm
							{
								OFFSET 0.000000 -18.000000 -1.000000
								CHANNELS 6 Xposition Yposition Zposition Zrotation Xrotation Yrotation
								JOINT LeftHand
								{
									OFFSET 0.000000 -12.000000 2.000000
									CHANNELS 6 Xposition Yposition Zposition Zrotation Xrotation Yrotation
									End Site
									{
										OFFSET 0.000000 -3.000000 5.000000
									}
								}
							}
						}
					}
					JOINT RightShoulder
					{
						OFFSET -6.000000 -4.000000 4.000000
						CHANNELS 6 Xposition Yposition Zposition Zrotation Xrotation Yrotation
						JOINT RightArm
						{
							OFFSET -2.000000 -16.000000 0.000000
							CHANNELS 6 Xposition Yposition Zposition Zrotation Xrotation Yrotation
							JOINT RightForeArm
							{
								OFFSET 0.000000 -18.000000 -1.000000
								CHANNELS 6 Xposition Yposition Zposition Zrotation Xrotation Yrotation
								JOINT RightHand
								{
									OFFSET 0.000000 -12.000000 2.000000
									CHANNELS 6 Xposition Yposition Zposition Zrotation Xrotation Yrotation
									End Site
									{
										OFFSET 0.000000 -3.000000 5.000000
									}
								}
							}
						}
					}
				}
			}
		}
		JOINT Tail1
		{
			OFFSET 0.000000 2.000000 -8.000000
			CHANNELS 6 Xposition Yposition Zposition Zrotation Xrotation Yrotation
			JOINT Tail2
			{
				OFFSET 0.000000 -1.000000 -7.000000
				CHANNELS 6 Xposition Yposition Zposition Zrotation Xrotation Yrotation
				JOINT Tail3
				{
					OFFSET 0.000000 -1.000000 -7.000000
					CHANNELS 6 Xposition Yposition Zposition Zrotation Xrotation Yrotation
					JOINT Tail4
					{
						OFFSET 0.000000 -1.000000 -7.000000
						CHANNELS 6 Xposition Yposition Zposition Zrotation Xrotation Yrotation
						JOINT Tail5
						{
							OFFSET 0.000000 -1.000000 -7.000000
							CHANNELS 6 Xposition Yposition Zposition Zrotation Xrotation Yrotation
							End Site
							{
								OFFSET 0.000000 -1.000000 -6.000000
							}
						}
					}
				}
			}
		}
		JOINT TailGuide1
		{
			OFFSET 0.000000 -1.000000 -7.000000
			CHANNELS 6 Xposition Yposition Zposition Zrotation Xrotation Yrotation
			JOINT TailGuide2
			{
				OFFSET 0.000000 -1.500000 -6.500000
				CHANNELS 6 Xposition Yposition Zposition Zrotation Xrotation Yrotation
				JOINT TailGuide3
				{
					OFFSET 0.000000 -1.500000 -6.500000
					CHANNELS 6 Xposition Yposition Zposition Zrotation Xrotation Yrotation
					JOINT TailGuide4
					{
						OFFSET 0.000000 -1.500000 -6.500000
						CHANNELS 6 Xposition Yposition Zposition Zrotation Xrotation Yrotation
						JOINT TailGuide5
						{
							OFFSET 0.000000 -1.500000 -6.500000
							CHANNELS 6 Xposition Yposition Zposition Zrotation Xrotation Yrotation
							End Site
							{
								OFFSET 0.000000 -1.000000 -5.000000
							}
						}
					}
				}
			}
		}
		JOINT LeftUpLeg
		{
			OFFSET 7.000000 -3.000000 -3.000000
			CHANNELS 6 Xposition Yposition Zposition Zrotation Xrotation Yrotation
			JOINT LeftLeg
			{
				OFFSET 0.000000 -22.000000 -6.000000
				CHANNELS 6 Xposition Yposition Zposition Zrotation Xrotation Yrotation
				JOINT LeftFoot
				{
					OFFSET 0.000000 -18.000000 4.000000
					CHANNELS 6 Xposition Yposition Zposition Zrotation Xrotation Yrotation
					JOINT LeftToe
					{
						OFFSET 0.000000 -9.000000 3.000000
						CHANNELS 6 Xposition Yposition Zposition Zrotation Xrotation Yrotation
						End Site
						{
							OFFSET 0.000000 -2.000000 6.000000
						}
					}
				}
			}
		}
		JOINT RightUpLeg
		{
			OFFSET -7.000000 -3.000000 -3.000000
			CHANNELS 6 Xposition Yposition Zposition Zrotation Xrotation Yrotation
			JOINT RightLeg
			{
				OFFSET 0.000000 -22.000000 -6.000000
				CHANNELS 6 Xposition Yposition Zposition Zrotation Xrotation Yrotation
				JOINT RightFoot
				{
					OFFSET 0.000000 -18.000000 4.000000
					CHANNELS 6 Xposition Yposition Zposition Zrotation Xrotation Yrotation
					JOINT RightToe
					{
						OFFSET 0.000000 -9.000000 3.000000
						CHANNELS 6 Xposition Yposition Zposition Zrotation Xrotation Yrotation
						End Site
						{
							OFFSET 0.000000 -2.000000 6.000000
						}
					}
				}
			}
		}
	}
}
MOTION
Frames: 5
Frame Time: 0.03333333333333333
0.000000 55.000000 0.000000 0.000000 0.000000 -8.000000 0.000000 -55.000000 0.000000 0.000000 0.000000 0.000000 0.000000 0.000000 0.000000 0.000000 0.000000 0.000000 0.000000 3.000000 12.000000 0.000000 0.000000 0.000000 0.000000 2.000000 12.000000 0.000000 0.000000 0.000000 0.000000 1.000000 12.000000 0.000000 0.000000 0.000000 0.000000 6.000000 8.000000 0.000000 0.000000 0.000000 0.000000 5.000000 6.000000 0.000000 0.000000 0.000000 0.000000 4.000000 6.000000 0.000000 0.000000 0.000000 6.000000 -4.000000 4.000000 0.000000 0.000000 0.000000 2.000000 -16.000000 0.000000 0.000000 0.000000 0.000000 0.000000 -18.000000 -1.000000 0.000000 0.000000 0.000000 0.000000 -12.000000 2.000000 0.000000 0.000000 0.000000 -6.000000 -4.000000 4.000000 0.000000 0.000000 0.000000 -2.000000 -16.000000 0.000000 0.000000 0.000000 0.000000 0.000000 -18.000000 -1.000000 0.000000 0.000000 0.000000 0.000000 -12.000000 2.000000 0.000000 0.000000 0.000000 0.000000 2.000000 -8.000000 0.000000 0.000000 0.000000 0.000000 -1.000000 -7.000000 0.000000 0.000000 0.000000 0.000000 -1.000000 -7.000000 0.000000 0.000000 0.000000 0.000000 -1.000000 -7.000000 0.000000 0.000000 0.000000 0.000000 -1.000000 -7.000000 0.000000 0.000000 0.000000 0.000000 -1.000000 -7.000000 0.000000 0.000000 0.000000 0.000000 -1.500000 -6.500000 0.000000 0.000000 0.000000 0.000000 -1.500000 -6.500000 0.000000 0.000000 0.000000 0.000000 -1.500000 -6.500000 0.000000 0.000000 0.000000 0.000000 -1.500000 -6.500000 0.000000 0.000000 0.000000 7.000000 -3.000000 -3.000000 0.000000 0.000000 0.000000 0.000000 -22.000000 -6.000000 0.000000 0.000000 0.000000 0.000000 -18.000000 4.000000 0.000000 0.000000 0.000000 0.000000 -9.000000 3.000000 0.000000 0.000000 0.000000 -7.000000 -3.000000 -3.000000 0.000000 0.000000 0.000000 0.000000 -22.000000 -6.000000 0.000000 0.000000 0.000000 0.000000 -18.000000 4.000000 0.000000 0.000000 0.000000 0.000000 -9.000000 3.000000 0.000000 0.000000 0.000000
0.000000 56.500000 9.000000 0.000000 0.000000 -8.000000 0.000000 -55.000000 0.000000 0.162241 0.061002 0.027960 0.000000 0.000000 0.000000 -0.139401 0.052239 -0.037799 0.000000 3.000000 12.000000 0.017631 -0.074996 3.160777 0.000000 2.000000 12.000000 0.052547 0.100967 2.986531 0.000000 1.000000 12.000000 0.134223 0.131695 2.910156 0.000000 6.000000 8.000000 -0.180795 -0.055332 -0.126411 0.000000 5.000000 6.000000 0.136467 0.100667 0.167779 0.000000 4.000000 6.000000 0.078994 0.063567 0.184747 6.000000 -4.000000 4.000000 0.172285 -0.051784 0.035580 2.000000 -16.000000 0.000000 6.140846 -14.061106 -0.087034 0.000000 -18.000000 -1.000000 0.006629 -15.102017 0.070527 0.000000 -12.000000 2.000000 -0.051347 -0.173620 0.087613 -6.000000 -4.000000 4.000000 -0.127832 0.155555 0.119349 -2.000000 -16.000000 0.000000 -6.102673 13.987771 -0.166365 0.000000 -18.000000 -1.000000 0.056393 -14.930606 -0.180975 0.000000 -12.000000 2.000000 -0.099476 0.193762 0.033509 0.000000 2.000000 -8.000000 0.145667 -0.093252 8.112709 0.000000 -1.000000 -7.000000 -0.177943 -0.147020 6.085886 0.000000 -1.000000 -7.000000 -0.144208 0.160936 3.333526 0.000000 -1.000000 -7.000000 -0.022821 -0.037584 -0.268722 0.000000 -1.000000 -7.000000 -0.038765 -0.105292 -3.868111 0.000000 -1.000000 -7.000000 -0.141717 0.016434 8.377816 0.000000 -1.500000 -6.500000 -0.079476 0.134487 6.355623 0.000000 -1.500000 -6.500000 -0.070371 -0.199677 3.353420 0.000000 -1.500000 -6.500000 0.147094 0.171781 -0.307958 0.000000 -1.500000 -6.500000 0.124631 -0.056481 -3.943005 7.000000 -3.000000 -3.000000 -0.001294 17.869469 0.043513 0.000000 -22.000000 -6.000000 -0.149069 13.981371 -0.169055 0.000000 -18.000000 4.000000 0.052427 0.157575 -0.109089 0.000000 -9.000000 3.000000 -0.186811 -0.165283 -0.105529 -7.000000 -3.000000 -3.000000 -0.068212 -18.171339 -0.055416 0.000000 -22.000000 -6.000000 0.190311 1.948181 -0.009075 0.000000 -18.000000 4.000000 -0.102643 0.176285 0.061892 0.000000 -9.000000 3.000000 -0.013605 -0.008241 0.007119
0.000000 55.000000 18.000000 0.000000 0.000000 -8.000000 0.000000 -55.000000 0.000000 0.096116 -4.097365 -0.115044 0.000000 0.000000 0.000000 0.032047 0.153948 -0.148007 0.000000 3.000000 12.000000 0.073763 -0.143500 -0.025372 0.000000 2.000000 12.000000 -0.016454 0.087559 -0.116872 0.000000 1.000000 12.000000 -0.118159 -0.006462 -0.062364 0.000000 6.000000 8.000000 -0.079505 -1.971937 0.076754 0.000000 5.000000 6.000000 0.138097 -2.044848 -0.166115 0.000000 4.000000 6.000000 -0.025778 -2.109797 0.180879 6.000000 -4.000000 4.000000 -0.021798 0.181356 0.039671 2.000000 -16.000000 0.000000 6.022642 0.114755 -0.016063 0.000000 -18.000000 -1.000000 0.019783 -10.083449 0.023497 0.000000 -12.000000 2.000000 -0.166790 -0.118298 -0.036565 -6.000000 -4.000000 4.000000 0.072420 -0.120628 0.054237 -2.000000 -16.000000 0.000000 -6.109847 -0.084681 -0.036447 0.000000 -18.000000 -1.000000 0.180690 -10.178153 0.148065 0.000000 -12.000000 2.000000 -0.014332 0.169471 0.155566 0.000000 2.000000 -8.000000 0.141574 -0.120210 -3.591005 0.000000 -1.000000 -7.000000 0.082009 -0.146869 -6.404033 0.000000 -1.000000 -7.000000 0.069291 0.113352 -8.379047 0.000000 -1.000000 -7.000000 0.105794 0.000125 -9.116305 0.000000 -1.000000 -7.000000 0.057858 0.028818 -8.255596 0.000000 -1.000000 -7.000000 -0.011506 0.169941 -3.346763 0.000000 -1.500000 -6.500000 -0.064339 0.018786 -6.382759 0.000000 -1.500000 -6.500000 -0.118207 0.022427 -8.245814 0.000000 -1.500000 -6.500000 0.167196 -0.042143 -8.852261 0.000000 -1.500000 -6.500000 -0.107864 0.006508 -8.081171 7.000000 -3.000000 -3.000000 -0.009278 0.134759 -0.126979 0.000000 -22.000000 -6.000000 -0.058850 8.116982 -0.138100 0.000000 -18.000000 4.000000 -0.060800 -3.833954 -0.143775 0.000000 -9.000000 3.000000 -0.140611 0.087315 0.113183 -7.000000 -3.000000 -3.000000 -0.102487 0.118946 0.180986 0.000000 -22.000000 -6.000000 0.018517 8.197064 -0.030444 0.000000 -18.000000 4.000000 -0.067232 -3.947644 0.022235 0.000000 -9.000000 3.000000 -0.072037 -0.138067 0.067252
0.000000 53.500000 27.000000 0.000000 0.000000 -8.000000 0.000000 -55.000000 0.000000 0.186614 -0.196696 0.058861 0.000000 0.000000 0.000000 0.007412 0.021604 0.039228 0.000000 3.000000 12.000000 0.193517 0.053147 -3.196580 0.000000 2.000000 12.000000 0.042871 -0.178636 -2.931914 0.000000 1.000000 12.000000 -0.127852 -0.004218 -3.176218 0.000000 6.000000 8.000000 0.047837 0.043663 0.046303 0.000000 5.000000 6.000000 -0.157113 -0.062411 -0.095482 0.000000 4.000000 6.000000 0.006706 -0.040034 0.041203 6.000000 -4.000000 4.000000 0.065673 0.062015 0.145290 2.000000 -16.000000 0.000000 5.903569 13.948063 -0.128315 0.000000 -18.000000 -1.000000 0.189942 -4.898931 0.182264 0.000000 -12.000000 2.000000 -0.080730 0.182287 -0.066966 -6.000000 -4.000000 4.000000 -0.151002 -0.068961 -0.169224 -2.000000 -16.000000 0.000000 -5.997188 -14.084755 0.022620 0.000000 -18.000000 -1.000000 -0.104487 -4.885479 -0.006843 0.000000 -12.000000 2.000000 0.145133 0.167972 -0.182672 0.000000 2.000000 -8.000000 -0.097612 0.055342 -8.120828 0.000000 -1.000000 -7.000000 -0.183836 0.176340 -6.224705 0.000000 -1.000000 -7.000000 -0.162545 0.108257 -3.289465 0.000000 -1.000000 -7.000000 -0.030831 -0.120530 0.334920 0.000000 -1.000000 -7.000000 0.092834 0.149334 3.552303 0.000000 -1.000000 -7.000000 -0.110125 0.146484 -8.307578 0.000000 -1.500000 -6.500000 0.065450 -0.088677 -6.219324 0.000000 -1.500000 -6.500000 0.074084 0.089627 -3.194290 0.000000 -1.500000 -6.500000 -0.153221 -0.094775 0.172462 0.000000 -1.500000 -6.500000 0.138476 0.127509 3.855931 7.000000 -3.000000 -3.000000 -0.124812 -18.079173 -0.093429 0.000000 -22.000000 -6.000000 0.057172 2.081229 0.122297 0.000000 -18.000000 4.000000 0.011442 -0.181901 -0.043867 0.000000 -9.000000 3.000000 -0.071579 -0.087897 -0.106433 -7.000000 -3.000000 -3.000000 0.100587 18.079847 -0.027203 0.000000 -22.000000 -6.000000 0.032650 14.076056 0.167222 0.000000 -18.000000 4.000000 -0.160851 0.084824 0.143298 0.000000 -9.000000 3.000000 0.089329 -0.072768 -0.162936
0.000000 55.000000 36.000000 0.000000 0.000000 -8.000000 0.000000 -55.000000 0.000000 0.171900 4.053651 0.114748 0.000000 0.000000 0.000000 0.073038 -0.186676 0.191431 0.000000 3.000000 12.000000 -0.130781 0.012886 -0.111142 0.000000 2.000000 12.000000 0.173715 0.172711 0.180998 0.000000 1.000000 12.000000 0.175914 0.198620 0.103889 0.000000 6.000000 8.000000 0.185876 2.139630 0.094877 0.000000 5.000000 6.000000 0.179012 2.023735 -0.083540 0.000000 4.000000 6.000000 -0.055932 1.889776 0.043563 6.000000 -4.000000 4.000000 -0.105423 -0.076010 0.026094 2.000000 -16.000000 0.000000 5.910411 -0.140768 0.081644 0.000000 -18.000000 -1.000000 -0.098918 -10.116792 -0.116006 0.000000 -12.000000 2.000000 -0.169238 -0.145547 0.053022 -6.000000 -4.000000 4.000000 -0.069947 -0.002035 -0.088026 -2.000000 -16.000000 0.000000 -6.179571 -0.174632 -0.024572 0.000000 -18.000000 -1.000000 -0.132127 -9.869321 -0.038740 0.000000 -12.000000 2.000000 0.132970 0.073105 0.183382 0.000000 2.000000 -8.000000 -0.125872 0.155378 3.325759 0.000000 -1.000000 -7.000000 0.051144 -0.063083 6.425829 0.000000 -1.000000 -7.000000 -0.190876 -0.185394 8.381070 0.000000 -1.000000 -7.000000 0.165552 -0.171899 9.035259 0.000000 -1.000000 -7.000000 0.147243 0.063271 8.033930 0.000000 -1.000000 -7.000000 0.115514 -0.071425 3.504736 0.000000 -1.500000 -6.500000 -0.050121 0.008545 6.479334 0.000000 -1.500000 -6.500000 -0.071821 -0.023248 8.496271 0.000000 -1.500000 -6.500000 -0.012562 0.189290 8.892017 0.000000 -1.500000 -6.500000 0.050992 0.125513 8.188052 7.000000 -3.000000 -3.000000 -0.094108 0.022471 -0.184515 0.000000 -22.000000 -6.000000 -0.146477 7.828430 0.039354 0.000000 -18.000000 4.000000 -0.197641 3.818112 -0.105170 0.000000 -9.000000 3.000000 -0.136114 -0.129747 0.145175 -7.000000 -3.000000 -3.000000 -0.014179 -0.128923 -0.087517 0.000000 -22.000000 -6.000000 -0.084501 8.028045 -0.064347 0.000000 -18.000000 4.000000 0.146629 3.865078 0.094940 0.000000 -9.000000 3.000000 0.126270 0.046068 -0.188570
