HIERARCHY
ROOT Reference
{
	OFFSET 0.000000 0.000000 0.000000
	CHANNELS 6 Xposition Yposition Zposition Zrotation Xrotation Yrotation
	JOINT Hips
	{
		OFFSET 120.000000 95.000000 600.000000
		CHANNELS 3 Zrotation Xrotation Yrotation
		JOINT Spine
		{
			OFFSET 0.000000 10.000000 -1.000000
			CHANNELS 3 Zrotation Xrotation Yrotation
			JOINT Spine1
			{
				OFFSET 0.000000 12.000000 0.500000
				CHANNELS 3 Zrotation Xrotation Yrotation
				JOINT Chest
				{
					OFFSET 0.000000 14.000000 0.500000
					CHANNELS 3 Zrotation Xrotation Yrotation
					JOINT Neck
					{
						OFFSET 0.000000 14.000000 0.000000
						CHANNELS 3 Zrotation Xrotation Yrotation
						JOINT Head
						{
							OFFSET 0.000000 10.000000 1.000000
							CHANNELS 3 Zrotation Xrotation Yrotation
							End Site
							{
								OFFSET 0.000000 12.000000 0.000000
							}
						}
					}
					JOINT LeftShoulder
					{
						OFFSET 8.000000 12.000000 0.000000
						CHANNELS 3 Zrotation Xrotation Yrotation
						JOINT LeftArm
						{
							OFFSET 14.000000 0.000000 0.000000
							CHANNELS 3 Zrotation Xrotation Yrotation
							JOINT LeftForeArm
							{
								OFFSET 27.000000 0.000000 0.000000
								CHANNELS 3 Zrotation Xrotation Yrotation
								JOINT LeftHand
								{
									OFFSET 25.000000 0.000000 0.000000
									CHANNELS 3 Zrotation Xrotation Yrotation
									End Site
									{
										OFFSET 10.000000 0.000000 0.000000
									}
								}
							}
						}
					}
					JOINT RightShoulder
					{
						OFFSET -8.000000 12.000000 0.000000
						CHANNELS 3 Zrotation Xrotation Yrotation
						JOINT RightArm
						{
							OFFSET -14.000000 0.000000 0.000000
							CHANNELS 3 Zrotation Xrotation Yrotation
							JOINT RightForeArm
							{
								OFFSET -27.000000 0.000000 0.000000
								CHANNELS 3 Zrotation Xrotation Yrotation
								JOINT RightHand
								{
									OFFSET -25.000000 0.000000 0.000000
									CHANNELS 3 Zrotation Xrotation Yrotation
									End Site
									{
										OFFSET -10.000000 0.000000 0.000000
									}
								}
							}
						}
					}
				}
			}
		}
		JOINT LeftUpLeg
		{
			OFFSET 9.000000 -3.000000 0.000000
			CHANNELS 3 Zrotation Xrotation Yrotation
			JOINT LeftLeg
			{
				OFFSET 0.000000 -42.000000 0.000000
				CHANNELS 3 Zrotation Xrotation Yrotation
				JOINT LeftFoot
				{
					OFFSET 0.000000 -41.000000 0.000000
					CHANNELS 3 Zrotation Xrotation Yrotation
					JOINT LeftToeBase
					{
						OFFSET 0.000000 -6.000000 13.000000
						CHANNELS 3 Zrotation Xrotation Yrotation
						End Site
						{
							OFFSET 0.000000 0.000000 7.000000
						}
					}
				}
			}
		}
		JOINT RightUpLeg
		{
			OFFSET -9.000000 -3.000000 0.000000
			CHANNELS 3 Zrotation Xrotation Yrotation
			JOINT RightLeg
			{
				OFFSET 0.000000 -42.000000 0.000000
				CHANNELS 3 Zrotation Xrotation Yrotation
				JOINT RightFoot
				{
					OFFSET 0.000000 -41.000000 0.000000
					CHANNELS 3 Zrotation Xrotation Yrotation
					JOINT RightToeBase
					{
						OFFSET 0.000000 -6.000000 13.000000
						CHANNELS 3 Zrotation Xrotation Yrotation
						End Site
						{
							OFFSET 0.000000 0.000000 7.000000
						}
					}
				}
			}
		}
	}
	JOINT Sword
	{
		OFFSET 150.000000 100.000000 630.000000
		CHANNELS 3 Zrotation Xrotation Yrotation
		JOINT SwordTip
		{
			OFFSET 0.000000 0.000000 40.000000
			CHANNELS 3 Zrotation Xrotation Yrotation
			End Site
			{
				OFFSET 0.000000 0.000000 30.000000
			}
		}
	}
	JOINT Marker
	{
		OFFSET -40.000000 0.000000 60.000000
		CHANNELS 3 Zrotation Xrotation Yrotation
		End Site
		{
			OFFSET 0.000000 5.000000 0.000000
		}
	}
}
MOTION
Frames: 5
Frame Time: 0.03333333333333333
0.000000 0.000000 0.000000 0.000000 0.000000 0.000000 0.000000 0.000000 12.000000 0.000000 0.000000 0.000000 0.000000 0.000000 0.000000 0.000000 0.000000 0.000000 0.000000 0.000000 0.000000 0.000000 0.000000 0.000000 0.000000 0.000000 0.000000 0.000000 0.000000 0.000000 0.000000 0.000000 0.000000 0.000000 0.000000 0.000000 0.000000 0.000000 0.000000 0.000000 0.000000 0.000000 0.000000 0.000000 0.000000 0.000000 0.000000 0.000000 0.000000 0.000000 0.000000 0.000000 0.000000 0.000000 0.000000 0.000000 0.000000 0.000000 0.000000 0.000000 0.000000 0.000000 0.000000 0.000000 0.000000 0.000000 0.000000 0.000000 0.000000 0.000000 0.000000 0.000000 10.000000 -20.000000 0.000000 0.000000 0.000000 0.000000 0.000000 0.000000 0.000000
0.000000 0.000000 0.000000 0.000000 0.000000 0.000000 0.000000 1.500000 12.000000 0.135640 0.164803 2.892003 0.145551 0.112489 3.149673 0.090268 -0.006926 3.140213 -0.004096 -0.007189 0.047289 -0.157151 -0.198370 -0.168074 -0.105672 0.064520 -0.071059 5.876664 -13.903727 -0.034027 -0.179129 -15.111338 -0.083166 -0.031343 -0.019772 0.182536 0.068256 -0.038538 0.131991 -5.808220 13.802595 0.184258 -0.006475 -15.027035 -0.008806 -0.196895 -0.002405 0.126410 0.004264 17.889478 0.153562 -0.038297 14.188023 -0.187382 0.112500 -0.000385 0.014285 -0.038065 0.142134 0.130163 0.185809 -18.124830 0.146828 0.059328 2.172253 0.035560 0.023578 -0.059037 -0.011713 -0.085264 -0.184266 -0.121978 10.000000 -15.000000 0.000000 0.000000 0.000000 0.000000 0.000000 0.000000 0.000000
0.000000 0.000000 0.000000 0.000000 0.000000 0.000000 0.000000 0.000000 12.000000 -0.076895 -0.148533 -0.015923 -0.014684 -0.034518 0.195195 0.085351 0.053969 0.031519 -0.130308 -1.887366 -0.141368 -0.096942 -2.146921 0.054786 -0.170774 0.194105 0.169213 6.176433 0.053542 0.121880 0.131006 -10.041793 -0.125208 0.171732 -0.170087 -0.117870 0.006580 -0.119074 -0.032654 -5.905367 -0.074526 -0.005679 -0.088524 -10.098042 0.007268 0.011266 0.168323 -0.080358 0.072877 -0.133393 0.161710 0.013962 7.801889 -0.178041 0.037290 -3.827270 -0.089660 0.017444 -0.192814 0.138799 -0.163916 0.176548 0.071719 0.181046 7.848963 0.170592 -0.095618 -3.880744 0.037260 -0.038513 -0.028694 -0.063121 10.000000 -10.000000 0.000000 0.000000 0.000000 0.000000 0.000000 0.000000 0.000000
0.000000 0.000000 0.000000 0.000000 0.000000 0.000000 0.000000 -1.500000 12.000000 0.019413 0.058257 -2.848188 -0.098633 -0.157177 -2.886629 0.012518 0.016460 -2.962375 0.034791 0.061271 -0.021313 0.077441 0.176223 0.142452 -0.143175 -0.165620 -0.195120 6.158177 14.094438 -0.143538 -0.077342 -4.803917 0.161480 -0.178280 0.056136 -0.095964 -0.060947 -0.192356 0.004442 -6.164398 -13.999927 0.175234 0.186675 -4.839002 0.082525 -0.046915 0.067167 0.113161 0.111683 -17.871499 -0.071988 -0.187059 1.848799 0.081457 0.162937 0.182750 -0.081603 0.038235 -0.014577 -0.169054 0.115769 18.184378 -0.084127 0.068103 13.964352 -0.078099 0.033983 0.166066 0.134397 0.087227 -0.137735 -0.049475 10.000000 -5.000000 0.000000 0.000000 0.000000 0.000000 0.000000 0.000000 0.000000
0.000000 0.000000 0.000000 0.000000 0.000000 0.000000 0.000000 0.000000 12.000000 -0.139597 0.124603 -0.075109 0.077261 0.093027 0.139800 -0.010936 -0.092740 -0.172962 0.022144 1.875691 -0.002272 -0.104251 1.914395 -0.158868 0.065864 -0.056279 -0.096851 6.035453 0.087922 0.035382 -0.191444 -9.984267 -0.097626 0.195892 -0.052101 0.079389 0.096823 0.071977 -0.109775 -5.921736 -0.030604 -0.141141 -0.101008 -10.070648 0.185766 -0.018385 -0.077651 0.029265 0.107149 -0.062062 0.191407 -0.110957 7.916136 -0.159734 -0.123192 4.120034 0.039329 0.111396 0.100870 -0.026209 0.093385 0.019263 -0.062964 0.152272 7.940747 0.188457 -0.023437 3.854254 -0.156460 0.037052 0.189588 -0.049186 10.000000 0.000000 0.000000 0.000000 0.000000 0.000000 0.000000 0.000000 0.000000
